UNIQUE_ID,WORKER_UNIQUE_ID,ADDRESS_TYPE,ADDRESS_LINE1,ADDRESS_LINE2,CITY,STATE,POSTAL_CODE,COUNTRY,EFFECTIVE_FROM,EFFECTIVE_TO
4356aee3-fd05-4c85-9f28-51034ecc436f,b17fda6a-2d5c-43ed-9fd8-16c6271d8c36,OTHER,24265 Christine Roads,None,Michellemouth,Utah,86020,QA,2022-07-01,2027-03-09
3bde4131-9aeb-4331-82da-549bc4aa0e32,b17fda6a-2d5c-43ed-9fd8-16c6271d8c36,WORK,56752 Kelly Courts Apt. 665,None,Lake Patricia,Alaska,79272,DM,2021-12-22,2026-11-27
e4d780e5-ca72-4e9a-a35d-f4528bf29781,f937e481-8e10-4d43-adec-45072be67389,HOME,2093 Miller Mission Suite 434,Suite 062,Port Lisamouth,Illinois,98691,OM,2022-12-08,2027-01-06
f9fd62ec-5109-48fd-8e56-09c47f2b51d6,a6365f6f-bc15-4c6b-9136-df94fe3d040d,OTHER,950 Danielle Forest Apt. 514,None,New Ryanhaven,Arizona,94397,VN,2024-05-20,2028-02-23
861e82d0-cbbd-416e-8b14-5c86d7fd0afb,11e2d1ef-6d93-4822-8912-8b3f8eccc5b8,OTHER,84786 Joseph Centers Suite 426,None,East Michael,Washington,16396,LI,2024-03-15,2028-08-13
82dbb63f-6fa0-402b-8d8a-21cb4f0f56aa,11e2d1ef-6d93-4822-8912-8b3f8eccc5b8,HOME,965 Reynolds Plains,Suite 731,Robertbury,Georgia,66667,TT,2024-03-28,2027-12-13
fab46ad1-5246-45fe-9d00-6d335eb2b394,4fe41f7d-3dac-4c14-b1a6-824837f7b09e,HOME,033 Hobbs Alley Apt. 561,Suite 369,New Kristiview,New Jersey,55985,TJ,2021-10-11,2027-12-14
c3e56cc5-c04a-4208-8a24-d6e0c1563af8,38c56099-6efb-4320-9a60-fca23b435605,HOME,39051 Hanna Neck Suite 106,None,North Michael,Arkansas,62391,MZ,2024-11-11,2029-02-23
a220ef0e-9ea2-45e4-9554-94b6976d84d8,c951e71a-9824-4cfd-9497-c6f2a53a79dc,OTHER,483 Karen Lights Apt. 401,None,West Tracey,Maine,60707,TW,2024-03-15,2027-06-02
e09e097a-fb00-4a75-8be7-0fea7eac3bbb,c951e71a-9824-4cfd-9497-c6f2a53a79dc,WORK,2970 Courtney Plaza,None,North Matthewborough,Arizona,92305,MW,2025-01-04,2026-07-17
ec006bce-09ad-477b-b4af-35950ede170e,a0e9aea7-9050-4561-ab6f-0db549fe16ff,HOME,198 Smith Drive Apt. 023,Apt. 905,Port Nathan,Vermont,14706,SZ,2022-12-21,2029-10-26
f3c80422-ddd3-4798-a555-f6f16ce44dae,23d92905-e344-40f3-a956-84079b3f3958,OTHER,5199 Mack Path,Suite 925,Connieshire,Louisiana,15978,SV,2021-05-12,2026-10-19
9b1d9d2e-69b3-45ba-a61c-22f86f4f5043,23d92905-e344-40f3-a956-84079b3f3958,WORK,173 Daniel Rapid Suite 993,None,East Scott,South Carolina,19737,ZM,2021-11-18,2029-10-20
8ca76942-61d9-49db-a424-873a3848a7fa,9a32797f-fd40-4a0b-b083-475969ac68e5,HOME,691 Kelly Rapid Suite 302,Suite 236,Butlershire,Delaware,48228,UY,2022-09-09,2029-07-08
e976b082-52fa-49d0-a39f-baeda694c40f,9a32797f-fd40-4a0b-b083-475969ac68e5,OTHER,033 Terry Stream,Suite 495,South Beverly,Massachusetts,08159,CU,2020-08-29,2026-08-10
ee7ae30a-6b2c-4f46-ad53-0497650d16a5,10fe7754-046d-4e74-8d0d-c834d7cb4ed3,WORK,202 Kramer Village,None,East Sandra,Texas,45791,CM,2020-04-01,2029-11-15
83f6f798-c773-46ae-9d42-0670537109be,10fe7754-046d-4e74-8d0d-c834d7cb4ed3,HOME,1972 Jackson Track Suite 558,None,Port Jeremy,Massachusetts,42474,CV,2023-03-15,2026-04-08
1f11aca3-8e6e-4abc-9d87-a3b41e60cac4,2dd569fe-1d8e-4791-9ca7-72c1a696c341,HOME,5286 William Wells,Suite 127,West Brian,Maryland,76216,RU,2023-02-22,2028-12-12
a8d3a96e-5798-4d2c-8995-77b6179007eb,2dd569fe-1d8e-4791-9ca7-72c1a696c341,OTHER,03975 Miller Shoals,None,South Elizabethview,Pennsylvania,20245,AE,2022-01-31,2029-08-29
343af2ed-d7f0-4c99-8eb1-816708bb1848,184d2c17-a050-4b11-8b08-ab63ea075fb0,OTHER,83527 Steven Fields Apt. 611,None,East Davidberg,Massachusetts,67653,HN,2021-02-27,2029-05-27
0396d3f1-33ae-4549-96c1-770b70b7c62a,905a3085-992f-4d69-ab19-3d2b7f2ac370,WORK,891 Jennifer Valleys,None,Stacyborough,Ohio,14467,TJ,2021-02-12,2027-02-22
ecd2fd7e-2f8d-4ee2-8da3-4522535123da,905a3085-992f-4d69-ab19-3d2b7f2ac370,HOME,517 Thomas Street,Suite 072,South Jamesside,Illinois,85106,GR,2024-06-01,2028-08-13
8669b4d4-1c06-4124-a0ec-2683ff6c9316,5582a2f4-a819-4db6-814d-43095a63e327,WORK,93676 Mcconnell Passage,None,South Mary,Nevada,63465,ES,2024-07-05,2026-10-04
262461d2-c5cf-4761-8f7c-bf439b93e172,06b16a21-267d-4582-82d6-e3ac43d5e28e,OTHER,531 Michael Garden,None,West Johnmouth,Arkansas,69641,AR,2022-11-25,2028-05-27
c27ada54-7f71-47af-b58e-2fe182465a24,06b16a21-267d-4582-82d6-e3ac43d5e28e,WORK,9293 Gross Island,Apt. 309,Brianmouth,Arkansas,92578,SE,2023-06-18,2029-06-24
faf335bc-da09-4979-b095-824912984497,ec0b293b-90b9-4045-824d-068d47a409d5,WORK,22749 Reid Extensions Apt. 254,None,South Melindabury,Wyoming,14404,MT,2022-10-27,2029-03-13
6d278a0c-ba65-4fd9-b7ab-00597f96fc8f,ec0b293b-90b9-4045-824d-068d47a409d5,HOME,614 Davis Lodge,None,West Adamview,Nebraska,31531,TV,2023-09-07,2029-09-08
4d18252a-b478-4640-a745-071dbb0f7f20,3662acc4-786d-46cf-b753-eac8ee369b1d,HOME,4317 Sweeney Ville Suite 599,Apt. 346,Dillonmouth,Delaware,60815,ZW,2022-02-09,2029-08-26
1fc51ec2-2bb6-4e6f-a706-426ced6522d0,3662acc4-786d-46cf-b753-eac8ee369b1d,WORK,510 Rebecca Courts Suite 919,None,West Mark,California,29969,KG,2021-08-23,2026-08-06
b4256e7b-f857-4db1-b234-6c55ed8a19b0,1c20f6b3-c8a3-41f4-9fca-3519219a33d3,WORK,127 Christina Street Suite 868,None,New Anthony,Wyoming,01013,GM,2022-05-31,2027-10-28
24dd4df0-72b0-4cc9-a8a4-f21d7b9bc112,1c20f6b3-c8a3-41f4-9fca-3519219a33d3,OTHER,9812 James Course Suite 928,Apt. 452,North Elizabeth,North Dakota,07656,SO,2022-08-27,2028-09-03
a8d65c0b-9f74-4ce4-abc9-c45ce7f66619,4295a9ca-a36a-404d-a1ee-06317683b403,HOME,5597 Watson Park Suite 605,Apt. 733,Lunashire,Georgia,66512,LK,2024-08-01,2026-09-03
bb1055d0-9e66-4f89-aec4-86284f046c76,8b3ab277-46d7-46d0-bd4d-a97aef322ead,OTHER,17610 Gilbert Drive,Suite 199,Kathrynburgh,Wisconsin,18263,GR,2021-02-02,2027-08-07
c4833ca3-477a-4452-a35b-d2b5163ab580,8b3ab277-46d7-46d0-bd4d-a97aef322ead,OTHER,5698 Johnson Roads Suite 473,None,North Brandon,Wyoming,58584,DZ,2022-12-08,2028-09-16
0fe907f1-7972-4c8e-b17e-475d9649e2d7,19e86dfb-802c-4cb4-a17d-3c84ccb15746,OTHER,461 Derek Falls Suite 682,None,Josephmouth,Montana,35402,DO,2020-04-26,2027-04-12
645ddee9-74d2-4024-a4b0-b3884539d25b,93aa2751-b84b-459c-87cc-e2a49eb039ac,HOME,96304 Kenneth Shoals Suite 182,Apt. 221,East Roger,Colorado,66077,UG,2020-09-30,2029-03-01
2ff1631f-fb38-4c22-a176-d506a75c4712,93aa2751-b84b-459c-87cc-e2a49eb039ac,HOME,99297 Bradley Rapid,Suite 911,Danielchester,Maine,42787,NP,2021-04-18,2030-01-25
4f1de9cf-f9be-414b-b6c0-bde80f1e6f53,2fd8547c-a991-41ac-a4a1-74c689cf68c6,WORK,217 Craig Forge Apt. 029,None,Mcgeestad,Minnesota,72373,MT,2023-07-23,2027-03-30
28b5f840-6b65-46d4-9bef-bfda1a6110ab,bde9da01-b7e2-43c9-9e0d-be551a19e978,OTHER,25499 Shields Oval Suite 788,Apt. 535,East Christianhaven,Pennsylvania,90913,MA,2023-01-01,2029-07-03
06f1a19f-ef4f-46c9-99bf-1120ab2089d2,983bbaa9-3369-45c5-8f17-a7ad7bc191fc,OTHER,671 Logan Street Apt. 485,None,North Nathanmouth,Nebraska,01252,PT,2025-01-06,2026-12-02
2bcef5aa-ecbb-4d88-9cab-6be0c78f8bd6,983bbaa9-3369-45c5-8f17-a7ad7bc191fc,WORK,51961 Julie Corner Suite 004,Apt. 501,Moralesmouth,Hawaii,76464,PH,2021-09-19,2028-06-20
a721cf32-cd84-46b9-9f36-7873f0801d9a,a68ff15e-3c84-4395-a46e-a3e69c05c57a,OTHER,6614 Jackson Haven Suite 529,None,South David,Mississippi,68115,LV,2022-03-01,2026-07-10
fde9d58f-059c-42d0-9785-22ea6a5f8c80,657bec27-8508-4ff7-9dc7-d7b91c02b969,HOME,82545 Kathy Ville Apt. 992,None,East Jessicatown,Minnesota,52360,CZ,2023-03-03,2026-04-08
fb00c8b8-fbf4-457a-98f9-4fd98362ba49,657bec27-8508-4ff7-9dc7-d7b91c02b969,OTHER,00931 Ayala Falls Apt. 239,Apt. 105,Jodistad,Oregon,54229,MA,2023-06-11,2027-11-11
7ca2577a-a367-4007-83d5-98c62c5574ef,cb645ffb-4b49-4f72-b349-dff0df788484,WORK,96234 Pham Port Suite 445,None,Lopezberg,Massachusetts,53641,IQ,2021-04-27,2028-07-08
fbda5768-f4ca-4304-997d-0ae11223a87c,c0d14153-7301-4fb7-a75c-a10250168e0a,HOME,2690 Sandra Radial,Apt. 685,Lake Nicholastown,Alaska,86213,KG,2024-03-23,2026-07-31
4bef1e64-42cb-47bd-8aae-3d2b8c43967b,c0d14153-7301-4fb7-a75c-a10250168e0a,HOME,9130 Deborah Branch,None,Kathleentown,Maryland,63762,UY,2023-10-28,2026-08-27
6ffad29c-5feb-4089-997f-45d5f7ffc04b,6001b28a-651f-478f-8b36-bf153d5acfc1,WORK,033 Richardson Fork,None,Williamland,Rhode Island,63259,UZ,2023-08-25,2027-09-13
a031d16a-173b-4000-9c44-cd460ab4fe16,6001b28a-651f-478f-8b36-bf153d5acfc1,HOME,547 Carlson Circles Suite 457,None,Marshalltown,Rhode Island,98453,RW,2022-07-01,2026-06-23
77ee6714-bc84-4cf7-a8da-5a59e850e55b,f23284dd-a697-4656-bf53-08c7b0ac2eff,WORK,0526 Matthew Run Suite 136,Apt. 130,Tarachester,New Jersey,94992,HU,2021-04-30,2029-03-23
ac9dee38-9121-4826-9815-b92db3c3a2dc,746cd5c2-1d83-4a45-9c70-adf0ce9f823f,WORK,144 Alexander Road Apt. 628,Apt. 181,Claytonside,Vermont,12812,JP,2020-09-06,2028-12-04
30778650-fc77-4908-a4da-96f07cd47794,044a961d-f43a-4122-ac83-6afdbe9421eb,OTHER,803 Smith Well,Suite 402,Scottmouth,Illinois,06400,VE,2024-11-21,2029-08-11
f702f37f-bee4-45be-a090-9f3784c21af8,044a961d-f43a-4122-ac83-6afdbe9421eb,OTHER,934 Travis Groves,Apt. 803,West Denisehaven,Idaho,11378,CH,2022-10-19,2027-07-16
15ded737-9a0f-4845-85a9-c79875cb6a3d,e1b77e60-7764-40ce-8dc0-a6889a9ba079,OTHER,65236 Richard Station Apt. 829,None,Vernonside,Massachusetts,62677,SA,2023-01-06,2027-09-24
a13c4eb4-ff6c-4dc4-b780-74fbd4e3b36f,eb6ad672-7bd2-4ace-a466-96bf4ef34b4c,HOME,4280 Young Summit Apt. 379,None,Lake Erikaborough,West Virginia,39520,AT,2023-05-22,2029-06-22
83403fdb-028c-4765-882a-cc26a0ad520c,eb6ad672-7bd2-4ace-a466-96bf4ef34b4c,OTHER,0991 Christina Extension Apt. 468,None,Port Courtneybury,Arizona,77048,TG,2020-06-07,2027-02-23
2196743b-3712-403e-8b5c-d053b89366f6,6d613535-d612-433b-a6a1-ce466953a659,WORK,1930 Johnson Course,Apt. 155,New Johnburgh,Wisconsin,30089,LA,2021-03-19,2029-04-10
7ab42493-a312-434d-817f-60834684c32e,869278e6-c8e9-4d26-abe2-2b6af855f053,OTHER,0791 Horne Creek Apt. 442,Apt. 140,Wagnerhaven,South Carolina,80700,KZ,2022-06-05,2028-06-18
6096e3b0-3aff-4f6d-bb3d-6f9eba2659a6,32bc5f50-8a4b-4901-9866-89ad89451854,HOME,25276 Holly Station Suite 464,Suite 474,East Mark,Idaho,80903,CM,2023-10-15,2028-04-21
509aa606-c8ea-44d5-b11f-3ef5fa178069,32bc5f50-8a4b-4901-9866-89ad89451854,HOME,66157 Hawkins Union,None,Trevorville,California,84977,CN,2020-12-02,2027-10-04
d85624bc-a5aa-467b-9464-c7650827071f,f19c07af-8752-4222-b7e7-8bb13eff3801,WORK,675 Johnny Keys Suite 041,None,Mooreberg,Kansas,67636,GN,2024-01-23,2029-01-28
0853d672-eb46-49a4-abf2-306862078992,f19c07af-8752-4222-b7e7-8bb13eff3801,OTHER,384 Richard Mount,None,Charlottemouth,Connecticut,93702,AL,2023-06-01,2029-08-10
0a1d69a9-70c6-4a6b-9356-60de9c9fd6b2,f4307057-0c21-4519-be95-4a604d08814f,OTHER,7314 Patel Path Apt. 165,None,East Christopher,Nebraska,57556,CO,2021-09-26,2027-11-28
1cf04cd9-25d4-4b49-9ad9-03db3f60eac3,1fc75ce0-ba05-4054-b1ec-4d66d67ef516,HOME,4108 Dean Mission,Apt. 070,Amybury,South Carolina,59955,CG,2021-01-12,2029-10-27
39b0eefc-e917-4e84-8017-23597e8298bf,1fc75ce0-ba05-4054-b1ec-4d66d67ef516,OTHER,216 Michael River Suite 447,None,New Marcustown,South Dakota,63797,GE,2023-03-24,2027-08-05
94ba6641-f934-488b-b7ea-26001d64c219,8ffb7369-776a-491c-bd19-dd3264d1f5fc,WORK,3031 Tracy Loaf Suite 719,Suite 792,Connermouth,Nevada,16268,CF,2021-07-06,2027-02-28
a2b4dd77-198c-4582-a3ee-d1d77440b9e2,bf126071-6691-45dc-bc15-e105083ea848,HOME,85630 Jennifer Pines,None,Port Rileymouth,Idaho,66485,SK,2024-01-07,2029-01-26
f0f4d479-1aab-40d9-a334-6014037e1529,bf126071-6691-45dc-bc15-e105083ea848,OTHER,540 Alexander Shoal,None,New Tammyside,Virginia,54736,ZW,2020-05-11,2026-05-16
9362160f-0819-469c-a0b2-d5edba4fa774,b208014c-a034-4ff9-91c3-f395a9682e96,WORK,1423 Robin Station,Suite 941,Port Reginaldview,Missouri,24380,PG,2024-02-21,2026-04-24
0b3bbddf-047f-42e5-9aba-aba005c99471,9754ed37-53fc-4d3d-a646-ec39f18ce9e0,OTHER,448 Andrea Fort,None,Andrewtown,Nebraska,20808,TN,2023-05-04,2027-03-28
e4093dab-d980-4733-a64e-8144103ab0fd,35434f30-920a-44d1-a85b-8587fe4e4ee4,OTHER,921 Francisco Trafficway Suite 917,None,West Markmouth,Florida,15779,JO,2022-04-11,2028-08-22
6caf88ce-db36-462e-9ee5-b4a344f5c54d,3239c5c7-56f6-4984-993e-f698e7ea349d,HOME,9594 Gregory Valleys Apt. 056,Apt. 950,East Meghan,Ohio,29274,GD,2020-07-18,2028-10-15
782cefd3-429e-47fd-8d40-d9420ffa4f70,8320bf80-4342-4448-9ffc-05951515e688,HOME,68459 Jackson Cape Suite 182,Apt. 652,South Nicholasbury,Maryland,95511,CH,2024-08-31,2027-12-24
9752c0e3-4761-4967-b56b-14d5ea4e029a,8320bf80-4342-4448-9ffc-05951515e688,WORK,95595 Jose Land,Suite 558,East Zachary,Ohio,70147,IQ,2020-05-13,2027-03-04
4a50e931-4129-47e9-a710-93f8b8a41e3c,9c56a992-ac0b-4518-a093-06e3af904eb7,WORK,41070 Curtis Plaza Suite 601,None,Port Julie,Colorado,35108,EG,2022-07-19,2027-02-21
916aa556-bedb-42b3-8f8b-966e271f6454,9c56a992-ac0b-4518-a093-06e3af904eb7,OTHER,2502 Harris Tunnel Apt. 572,Suite 421,Stevenfurt,Delaware,44511,GT,2022-05-23,2026-11-30
917b7f63-46a3-480d-a470-c36c64e5f089,14cd6f5c-25e8-493d-92e2-635e466b408a,HOME,5125 Meyer Walk,Apt. 545,Sheilaborough,Utah,05573,HN,2021-02-22,2028-08-03
4142ca64-0d60-4b9b-b70c-bd97a30003b1,14cd6f5c-25e8-493d-92e2-635e466b408a,WORK,914 Becky Island,Apt. 282,North Paulmouth,New Mexico,90824,BR,2024-06-23,2027-02-23
5b3b1b0d-8165-4468-9f25-3c5d5e1a378f,8e8043fd-4835-4ea8-bae1-0a1e0f3f8dee,WORK,760 Heather Ramp,Apt. 410,Lindahaven,Hawaii,09735,RU,2025-02-07,2026-05-03
19885c3b-c2e2-4211-8023-8d3c297e52ec,8e8043fd-4835-4ea8-bae1-0a1e0f3f8dee,HOME,122 Bennett Run Apt. 137,None,Leonardmouth,Kentucky,71816,US,2023-03-29,2029-10-29
861bbaf6-b6c5-411d-957f-0456768374a0,5719b521-72ca-4092-89ac-f0443f8ba078,WORK,8632 Sharon Freeway Apt. 682,None,Barryshire,Florida,25443,GA,2020-12-24,2026-05-05
b8cee9b8-ceae-4f82-836f-2925335f301f,720b0c1c-fec8-4779-b8de-adbfdb94a062,WORK,7159 Garcia Park Suite 278,None,Robertsonchester,Alaska,47635,KH,2020-04-19,2028-03-02
9f5a65fb-4064-4567-9a06-ccd8eb803f7e,0b84323b-fe1f-4070-840c-1aab0f90a42e,WORK,5496 Hall Greens Apt. 796,Apt. 288,Port Kevin,Delaware,81647,SL,2023-05-02,2029-10-08
2adba687-92fe-48e5-ba90-9a7b153a0b71,a650e2dd-6925-4bc2-887f-81c95552554b,HOME,61614 Williams Neck Apt. 299,Suite 283,Lake Angelachester,Louisiana,77453,PT,2020-10-15,2026-06-30
b0f18975-3c1a-4588-b621-185cd19642bd,d65885ac-7500-44bd-b73f-152ad10e940d,OTHER,631 Alexander Court,Apt. 597,West Timothyview,Massachusetts,34457,HT,2022-07-23,2026-06-20
4bf36d14-191e-4a1f-a12b-40f1bb1ea8e7,d65885ac-7500-44bd-b73f-152ad10e940d,HOME,82150 Mark Curve Apt. 177,Apt. 127,Gentrystad,Michigan,88100,AU,2020-03-23,2026-05-07
9efc7ff8-4514-4c69-9968-8835bbf41759,b8934ef8-10fc-4496-87b1-4267d7a86bba,OTHER,2312 Stafford Divide,Suite 178,Robertstad,North Dakota,88339,AE,2021-09-23,2029-01-08
b31ba470-0178-4b9f-a34f-c94199850844,b8934ef8-10fc-4496-87b1-4267d7a86bba,WORK,367 Dillon Lodge Suite 387,None,North Rodneyshire,Hawaii,83271,GY,2022-03-31,2029-04-29
9c3e1f83-9c58-486b-b65d-2344e59b55fa,e793bca2-c2c2-4384-b4b0-b989013fbe17,OTHER,809 Mike Bypass Suite 120,Apt. 396,Wardshire,South Dakota,63216,VE,2025-01-15,2030-01-26
fb79b497-e173-4f0e-89e5-f7be896e5799,755d8079-702a-4cd0-acb3-54432e900bac,WORK,12684 Chambers Parkways Suite 483,None,Lozanoport,Massachusetts,82820,ME,2020-05-13,2028-04-25
de96dad5-64db-4d19-bb9b-6736e7b36b58,3f50a371-3f01-4dbd-9481-880955db1546,HOME,766 Christopher Road,None,Johnsonside,Maine,65413,SV,2021-07-26,2026-12-12
f98ee13a-0e93-4b39-bd35-24eee3e8048a,3f50a371-3f01-4dbd-9481-880955db1546,HOME,977 Duncan Extensions Suite 164,Apt. 493,Hensonmouth,Vermont,42202,NR,2021-04-09,2026-08-16
b7734146-ebe7-4163-a746-53d6319a7141,fe4483f7-94d1-4466-a402-f6f24ac1912e,WORK,4943 Maxwell Meadows,None,Karenside,Hawaii,05421,MY,2020-08-06,2029-06-27
b45b6281-5a90-4c29-8a9a-6c1e48c7c4cd,e1664717-7591-4b35-b944-db1cd8823344,OTHER,32356 Henry Land,Apt. 621,Andersontown,Minnesota,76744,NO,2024-06-01,2026-05-16
8448165c-2c67-4882-b376-b05ffaab48e4,e1664717-7591-4b35-b944-db1cd8823344,WORK,4766 Patterson Well,Suite 023,Lake Timothytown,Louisiana,44366,ME,2021-12-09,2027-04-04
1cf17450-f68c-46eb-93d1-4d267717618f,105ba572-bf8a-4ff1-a601-1f8bd03c55cb,WORK,00407 Shirley Crescent,None,Port Vernon,West Virginia,83907,GT,2022-07-10,2029-10-16
0d4ff589-7299-4353-987f-43a7d13a37f3,105ba572-bf8a-4ff1-a601-1f8bd03c55cb,HOME,13629 Wilson Cliffs,None,Lake Morganview,New York,62968,JP,2024-02-19,2029-09-14
fc7adef8-d935-4f1b-bc99-37cd39b4967c,b232981b-b02c-4455-be92-c37eff771e49,WORK,203 Victoria Villages Apt. 972,None,Aliciaport,Kansas,09712,SG,2024-10-14,2027-07-03
1f277c71-e884-4287-8845-d970b9b05f10,b232981b-b02c-4455-be92-c37eff771e49,HOME,6957 Gregory Rapids,Suite 539,Sandersbury,Hawaii,19098,LS,2021-07-15,2027-01-15
d53d0cdb-bb0a-42de-8eab-3c2afcfa25aa,03960307-1c8a-416e-aba1-412ff3675fed,OTHER,2184 Terry Way,Suite 125,Hernandezburgh,New Hampshire,54500,BI,2020-12-22,2029-03-08
252c3dbe-b635-402f-a6e7-f79a08699943,03960307-1c8a-416e-aba1-412ff3675fed,WORK,278 James Parkways,None,West Kevinborough,North Carolina,79852,IT,2024-09-06,2029-06-16
3279275d-face-446f-887d-bc268bdda0ea,85813b6a-37a5-44c8-91b3-0a5bcb68d0bc,HOME,494 Morgan Station Suite 225,None,West Rodneyhaven,New Hampshire,99664,ES,2024-07-14,2030-02-17
5ff1fd0d-4af1-4a17-9098-31b9201db8bc,975b25fb-7d77-4553-a88b-41f2d5925957,OTHER,14613 Holden Wells,None,Sullivanshire,California,95684,DZ,2021-07-14,2026-11-16
34bf9d1e-1b66-4e9e-bb8f-694533ffb87b,975b25fb-7d77-4553-a88b-41f2d5925957,WORK,125 Sutton Island,Apt. 156,New Julietown,South Dakota,87198,LI,2022-12-12,2028-07-01
8397f407-019f-42c4-a8c2-e68124f5e09d,ea5c6333-7f13-4e66-bcb6-5c57441d2e8d,HOME,441 Brooks Bridge,None,Smithmouth,Texas,14369,NP,2024-09-19,2027-08-29
5f6353e4-4883-4e65-a530-3d0805d9d8e3,ae198da0-2c49-4190-a2da-eada21f24460,OTHER,713 Stacey Track Apt. 826,Suite 113,Williamview,Utah,92474,NL,2023-06-22,2026-11-03
b9772cfb-ecf0-4f7d-9e8d-b1f5870c5348,1b961932-d5a2-4f05-aeef-df18e13b96ca,HOME,144 Ryan Alley Suite 499,None,Lewisside,Alaska,55578,GB,2022-04-23,2027-10-27
9b3efdcf-719c-4cd2-a466-bc63d81b13b9,1b961932-d5a2-4f05-aeef-df18e13b96ca,OTHER,2185 Perez Crossroad,None,Port Ashley,New Hampshire,37661,KZ,2024-02-05,2027-10-23
b1658b43-a874-4ab2-967c-b0327063ce3d,6da3b24f-cb7b-4ce2-9039-486ae1a1349a,WORK,6418 Smith Prairie,Apt. 584,Josephberg,Ohio,78594,GY,2023-11-01,2029-07-29
b001aefc-e278-4d18-845d-413831f691ae,cedb3cab-c122-455b-8388-3d2a5ec3fdf5,WORK,14076 Chen Union,Apt. 674,South Susan,Colorado,44408,VC,2023-12-25,2026-05-29
45979f16-02f8-4f3f-b75f-0f9969730a82,cedb3cab-c122-455b-8388-3d2a5ec3fdf5,OTHER,5308 Maddox Curve Suite 909,Apt. 832,Dayport,Massachusetts,68405,MH,2021-02-16,2028-05-20
f3bc8ac5-4bdc-4425-b59b-562a9a8e84a6,355f8207-3b3a-4980-9640-15f5350fcc40,HOME,402 William Harbor Suite 164,None,New Apriltown,Utah,93937,PT,2021-01-30,2026-10-06
7eadd948-50aa-44b7-8e7e-afa60e7f4e40,af1ebc8a-2fef-42bf-b7ef-51b752d5ce3a,OTHER,340 Nichols Mountain,Apt. 427,West Brittany,Connecticut,83562,MZ,2020-10-23,2027-12-06
3de4dc09-27e4-40cc-bde5-f7ef2a9f4b9d,aec034b0-4e51-4354-987e-4628f527aabe,WORK,69995 Brian Drive Suite 700,Suite 213,Danielsport,Arizona,73930,SC,2024-11-06,2027-02-11
72c5b47f-4c5d-4785-9004-26a0af11f703,6d2cd774-6735-474a-bf9a-901f1539361a,OTHER,49968 Watts Squares,Apt. 896,Wagnerview,Missouri,23289,LS,2024-03-05,2026-08-11
5035b906-00fe-4837-9407-ac1abb9a23aa,87c4eee7-97e8-423d-a776-b7315120f871,OTHER,7504 Barry Ville Apt. 813,None,North Sherifurt,Colorado,95216,SA,2020-12-08,2026-09-02
26d33865-535e-455f-93a1-c9d1717ce323,87c4eee7-97e8-423d-a776-b7315120f871,HOME,6051 Hector Station,None,East Dawnhaven,Idaho,99601,GA,2023-06-09,2028-07-21
ba1615c2-0c11-4269-8107-e378dbb78e85,1ef629ed-baeb-4e09-a821-d90f99482a2e,HOME,50994 Morales Estates Apt. 808,None,West Randy,South Carolina,85291,YE,2024-10-29,2028-05-29
1e6cc098-242b-46b4-a13d-4f61762da7f8,1ef629ed-baeb-4e09-a821-d90f99482a2e,OTHER,076 Green Branch,None,West Rachel,West Virginia,50548,ZA,2024-04-07,2026-08-21
ccb9b2f2-afee-476c-9776-bdf6275afe67,05f60d74-6f7e-4d50-a638-943aeee8911c,HOME,11745 Clifford Summit Apt. 322,Apt. 515,Gailmouth,Texas,88315,PS,2020-05-25,2026-04-15
568308b7-63aa-40f1-9ad4-1926fd6c2ebd,7d6c026c-52b9-4c2f-99ea-d158055a40aa,OTHER,706 David Point Apt. 126,None,Susanfurt,Tennessee,70294,ME,2021-07-21,2027-03-23
54926e04-1491-4e43-a1ae-1fad105b6e82,c53c9966-41d8-4d63-9ed7-2309526f6c0f,HOME,5951 Blair Track Apt. 272,Apt. 063,Annmouth,Wisconsin,06428,KW,2023-02-24,2029-11-26
8538dc8b-fc06-42e2-9198-07f6640ac081,b9af8093-ab11-4bb3-8c00-d040d1b5c919,OTHER,13235 Julie Shoal,None,Brucefurt,West Virginia,20081,HN,2023-10-06,2026-12-04
52f5b1d9-1fe1-4686-83fa-d3dde8cba87c,b9af8093-ab11-4bb3-8c00-d040d1b5c919,WORK,183 Sabrina Brooks,None,Ashleystad,North Dakota,35961,GA,2021-01-13,2027-02-26
cd3e6354-b67e-43da-959c-936d2ab95370,0ea72df7-8c6d-4120-9b7c-3a56883507f7,WORK,55662 Davies Ridges Apt. 882,None,Jeffreyborough,Alaska,53332,CH,2023-06-20,2029-03-24
e8e30afa-dbca-441a-a48e-e76f632013ac,1855d96b-721d-4a07-bfb8-ab55a88d3593,WORK,1599 Leonard Summit,None,South Matthew,Maine,24068,MR,2020-10-19,2029-12-12
e969b736-8667-4e25-94d7-c4500d495568,1855d96b-721d-4a07-bfb8-ab55a88d3593,HOME,83236 Alexa Orchard Suite 035,None,Port Christopher,South Dakota,81356,LY,2023-01-11,2029-04-19
97e2b255-666f-4adf-a187-a9bab2aa4c86,540d8431-145e-4b3d-a708-6db7c953fdf6,OTHER,4029 Lewis Fork,None,Rogermouth,Virginia,61121,EC,2021-03-06,2027-03-12
868d7618-831d-460a-ab5c-3a25a38d9830,64bd71e0-c34d-4848-92ff-d6f1d194be57,OTHER,412 James Prairie,None,Kellyburgh,Virginia,81932,CY,2023-06-12,2027-08-06
7a262ff2-d7fd-4da3-b0b8-50adf71b5d41,1c1510ad-8bbd-4002-9945-f1057b77df3d,WORK,49161 Kevin Hill,None,Jamesfurt,North Dakota,17567,SK,2021-12-26,2029-07-01
19483d29-e67d-4867-b4f1-b11f7fe79622,411c45b0-16ae-47a8-b9af-e13ed6ca2ba2,HOME,358 Kari Valley,Apt. 739,Tanyamouth,Colorado,09815,BD,2022-12-24,2027-11-06
d7e3226d-9a86-4ef5-a9a4-06ba3616b67c,a9bbe114-80a9-4b65-9dc3-173de1e38cf3,HOME,67246 Frederick Curve Apt. 640,None,Shaneborough,New York,81217,MH,2024-01-25,2027-02-18
cf314249-84e8-44f8-bcd0-1289469cb490,a9bbe114-80a9-4b65-9dc3-173de1e38cf3,HOME,468 Mary Point,Suite 772,New Marcchester,North Dakota,60333,PY,2023-12-05,2028-07-31
ad6155c6-0b0d-416a-93e3-ad248f341e39,1218324f-a105-462c-992d-e2eda4b4b431,HOME,221 Lee Islands,Apt. 754,Smithport,Connecticut,10017,JM,2021-06-29,2026-05-01
d1a7e3cb-e435-4b91-96aa-1c8849f37444,1218324f-a105-462c-992d-e2eda4b4b431,WORK,08174 Richard Row Apt. 852,None,North Corey,California,02533,GT,2020-07-21,2026-10-18
a84fdb75-c627-44ef-866f-e1f5292b7150,f8acc532-7215-471c-a7b9-b99afd1b2d6c,OTHER,052 Campbell Shores,None,South Austinstad,Oklahoma,09306,MV,2024-07-15,2029-05-03
a956029b-9158-4106-91d8-fb7fbc6678ae,016edc7d-b2d7-4558-96f4-712c239ddf72,WORK,13434 William Trail Suite 968,None,New Kevin,Virginia,37222,ML,2023-07-27,2029-10-25
478daf32-6b03-4f78-891f-d92d82c0c58d,016edc7d-b2d7-4558-96f4-712c239ddf72,WORK,50334 Barrett Valleys Suite 533,None,West Brookeberg,Idaho,20236,KI,2021-11-05,2027-02-25
b5a00a8f-58c0-45bb-9511-4372fa70f79e,f40ba4d7-1abc-4bd2-8356-c3070805997d,WORK,33403 Joe Key Apt. 113,Suite 638,West Dustinborough,Virginia,46542,PL,2024-09-13,2026-08-19
69737b96-5101-47db-a646-534ad035e1f5,ce61fcd3-dd2c-42d2-9384-490155d97d6d,WORK,954 Sydney Crossroad,None,Amandamouth,Arkansas,90648,PA,2021-09-29,2027-11-09
6634d2f8-b5ed-421e-98ca-c50ebb39f3b8,ce61fcd3-dd2c-42d2-9384-490155d97d6d,HOME,5995 Dunlap Junction Suite 192,Suite 873,Parkermouth,Pennsylvania,52221,PK,2022-02-24,2028-06-08
11628e22-589c-4cc9-bb63-7d92b6a90aa9,f628f595-17c0-4e1d-afd1-98bbcc4fd9f0,WORK,070 Wilcox View,Apt. 526,Port Kevinport,Delaware,79799,MM,2020-12-02,2030-01-04
5be9ad23-ba7c-4977-8f56-1242a957f2d6,f628f595-17c0-4e1d-afd1-98bbcc4fd9f0,OTHER,0500 John Squares Suite 367,Apt. 062,East Douglas,Alabama,07635,ZW,2020-05-08,2027-12-07
4b8e1e4d-101b-4958-81ed-d21801ca42f8,ace0950c-7690-4666-ba08-6b785c0db57e,OTHER,45880 Bell View,None,North Matthewshire,New Mexico,02616,NZ,2023-06-28,2027-07-31
027830da-beb2-438d-bca8-a365f41d0ed4,9b136365-b004-42b0-b469-d200da1fc7f1,WORK,7046 Johnson Station,None,Joshuashire,California,45177,PH,2024-08-19,2026-03-25
0281e140-1bb7-432f-9ed8-4a0cbf406879,9b136365-b004-42b0-b469-d200da1fc7f1,HOME,23226 Jessica Avenue,None,New Melanie,Idaho,67601,NE,2024-06-06,2026-08-31
eb03f0ba-ec5b-4163-b803-2847370022a1,60a481c5-057f-4bfe-8f8c-d34b0cf23c74,HOME,6661 David Loaf,None,Oconnellton,Delaware,22655,ZM,2024-03-01,2029-05-07
b3769594-b923-47b8-8408-60868aeea02f,60a481c5-057f-4bfe-8f8c-d34b0cf23c74,OTHER,349 Jackson Trace,Suite 040,Camachoberg,Minnesota,44766,NR,2021-05-12,2028-10-01
e33fff6c-8c1e-417b-b155-7b8aff939b43,f040c5c8-9ba2-4e3f-a88c-36f0554e6624,HOME,889 Gonzalez Ford Suite 525,None,Michaelberg,Minnesota,58069,CN,2021-02-05,2027-04-21
